{"type": "FeatureCollection", "features": [ {"type": "Feature", "properties": {"norad_id": 66810, "name": "STARLINK-36046", "group": "last-30-days", "lat": 5.079050876403942, "lon": -22.034946615630368, "alt_km": 414.4476759087547, "timestamp": "2025-12-27T13:34:48.007247+00:00", "meta": {"OBJECT_NAME": "STARLINK-36046", "OBJECT_ID": "2025-278V", "EPOCH": "2025-12-27T00:00:02.999808", "MEAN_MOTION": 15.50568345, "ECCENTRICITY": 0.00015311, "INCLINATION": 43, "RA_OF_ASC_NODE": 166.7484, "ARG_OF_PERICENTER": 272.8452, "MEAN_ANOMALY": 337.5404, "EPHEMERIS_TYPE": 0, "CLASSIFICATION_TYPE": "U", "NORAD_CAT_ID": 66810, "ELEMENT_SET_NO": 999, "REV_AT_EPOCH": 502, "BSTAR": -0.00020906802, "MEAN_MOTION_DOT": -0.00012582, "MEAN_MOTION_DDOT": 0}, "tle": {"line1": "1 66810U 25278V   25361.00003472 -.00012582  00000+0 -20907-3 0  9998", "line2": "2 66810  43.0000 166.7484 0001531 272.8452 337.5404 15.50568345  5021"}}, "geometry": {"type": "Point", "coordinates": [-22.034946615630368, 5.079050876403942]}}, {"type": "Feature", "properties": {"norad_id": 66811, "name": "STARLINK-36045", "group": "last-30-days", "lat": 3.7782230969913257, "lon": -20.630624525376422, "alt_km": 414.67875465809175, "timestamp": "2025-12-27T13:34:48.007258+00:00", "meta": {"OBJECT_NAME": "STARLINK-36045", "OBJECT_ID": "2025-278W", "EPOCH": "2025-12-27T00:00:02.999808", "MEAN_MOTION": 15.50574589, "ECCENTRICITY": 0.00015029, "INCLINATION": 43, "RA_OF_ASC_NODE": 166.7434, "ARG_OF_PERICENTER": 276.2762, "MEAN_ANOMALY": 336.0265, "EPHEMERIS_TYPE": 0, "CLASSIFICATION_TYPE": "U", "NORAD_CAT_ID": 66811, "ELEMENT_SET_NO": 999, "REV_AT_EPOCH": 525, "BSTAR": -0.00044570011, "MEAN_MOTION_DOT": -0.00026396, "MEAN_MOTION_DDOT": 0}, "tle": {"line1": "1 66811U 25278W   25361.00003472 -.00026396  00000+0 -44570-3 0  9999", "line2": "2 66811  43.0000 166.7434 0001502 276.2762 336.0265 15.50574589  5258"}}, "geometry": {"type": "Point", "coordinates": [-20.630624525376422, 3.7782230969913257]}}, {"type": "Feature", "properties": {"norad_id": 66812, "name": "STARLINK-36054", "group": "last-30-days", "lat": 1.171363508320236, "lon": -17.832861405583962, "alt_km": 415.1732170112882, "timestamp": "2025-12-27T13:34:48.007268+00:00", "meta": {"OBJECT_NAME": "STARLINK-36054", "OBJECT_ID": "2025-278X", "EPOCH": "2025-12-27T00:00:02.999808", "MEAN_MOTION": 15.50590752, "ECCENTRICITY": 0.00015537, "INCLINATION": 43.0001, "RA_OF_ASC_NODE": 166.7346, "ARG_OF_PERICENTER": 283.3881, "MEAN_ANOMALY": 332.7504, "EPHEMERIS_TYPE": 0, "CLASSIFICATION_TYPE": "U", "NORAD_CAT_ID": 66812, "ELEMENT_SET_NO": 999, "REV_AT_EPOCH": 525, "BSTAR": -0.0010498251, "MEAN_MOTION_DOT": -0.00061474, "MEAN_MOTION_DDOT": 0}, "tle": {"line1": "1 66812U 25278X   25361.00003472 -.00061474  00000+0 -10498-2 0  9997", "line2": "2 66812  43.0001 166.7346 0001553 283.3881 332.7504 15.50590752  5258"}}, "geometry": {"type": "Point", "coordinates": [-17.832861405583962, 1.171363508320236]}}, {"type": "Feature", "properties": {"norad_id": 66813, "name": "STARLINK-36042", "group": "last-30-days", "lat": -0.13763396475594739, "lon": -16.433657382626784, "alt_km": 415.0065545543539, "timestamp": "2025-12-27T13:34:48.007278+00:00", "meta": {"OBJECT_NAME": "STARLINK-36042", "OBJECT_ID": "2025-278Y", "EPOCH": "2025-12-27T00:00:02.999808", "MEAN_MOTION": 15.50582259, "ECCENTRICITY": 0.00014738, "INCLINATION": 43.0001, "RA_OF_ASC_NODE": 166.7288, "ARG_OF_PERICENTER": 268.2974, "MEAN_ANOMALY": 349.7609, "EPHEMERIS_TYPE": 0, "CLASSIFICATION_TYPE": "U", "NORAD_CAT_ID": 66813, "ELEMENT_SET_NO": 999, "REV_AT_EPOCH": 525, "BSTAR": -0.00079082002, "MEAN_MOTION_DOT": -0.00046466, "MEAN_MOTION_DDOT": 0}, "tle": {"line1": "1 66813U 25278Y   25361.00003472 -.00046466  00000+0 -79082-3 0  9997", "line2": "2 66813  43.0001 166.7288 0001473 268.2974 349.7609 15.50582259  5257"}}, "geometry": {"type": "Point", "coordinates": [-16.433657382626784, -0.13763396475594739]}}, {"type": "Feature", "properties": {"norad_id": 66814, "name": "STARLINK-35984", "group": "last-30-days", "lat": 2.4179086664080414, "lon": -19.17161996475901, "alt_km": 432.6982055070357, "timestamp": "2025-12-27T13:34:48.007290+00:00", "meta": {"OBJECT_NAME": "STARLINK-35984", "OBJECT_ID": "2025-278Z", "EPOCH": "2025-12-27T06:00:02.000160", "MEAN_MOTION": 15.4584213, "ECCENTRICITY": 0.00013007, "INCLINATION": 43.0003, "RA_OF_ASC_NODE": 165.258, "ARG_OF_PERICENTER": 264.5611, "MEAN_ANOMALY": 313.0589, "EPHEMERIS_TYPE": 0, "CLASSIFICATION_TYPE": "U", "NORAD_CAT_ID": 66814, "ELEMENT_SET_NO": 999, "REV_AT_EPOCH": 538, "BSTAR": -0.047067383, "MEAN_MOTION_DOT": -0.02076843, "MEAN_MOTION_DDOT": 0}, "tle": {"line1": "1 66814U 25278Z   25361.25002315 -.02076843  00000+0 -47067-1 0  9990", "line2": "2 66814  43.0003 165.2580 0001300 264.5611 313.0589 15.45842130  5381"}}, "geometry": {"type": "Point", "coordinates": [-19.17161996475901, 2.4179086664080414]}}, {"type": "Feature", "properties": {"norad_id": 66815, "name": "STARLINK-35985", "group": "last-30-days", "lat": -6.658086584329576, "lon": -9.410622930447225, "alt_km": 415.69848254150384, "timestamp": "2025-12-27T13:34:48.007300+00:00", "meta": {"OBJECT_NAME": "STARLINK-35985", "OBJECT_ID": "2025-278AA", "EPOCH": "2025-12-27T00:00:02.999808", "MEAN_MOTION": 15.50566195, "ECCENTRICITY": 0.00016144, "INCLINATION": 43.0001, "RA_OF_ASC_NODE": 166.7033, "ARG_OF_PERICENTER": 275.4195, "MEAN_ANOMALY": 352.2235, "EPHEMERIS_TYPE": 0, "CLASSIFICATION_TYPE": "U", "NORAD_CAT_ID": 66815, "ELEMENT_SET_NO": 999, "REV_AT_EPOCH": 533, "BSTAR": -0.0002007945, "MEAN_MOTION_DOT": -0.00012098, "MEAN_MOTION_DDOT": 0}, "tle": {"line1": "1 66815U 25278AA  25361.00003472 -.00012098  00000+0 -20079-3 0  9995", "line2": "2 66815  43.0001 166.7033 0001614 275.4195 352.2235 15.50566195  5333"}}, "geometry": {"type": "Point", "coordinates": [-9.410622930447225, -6.658086584329576]}}, {"type": "Feature", "properties": {"norad_id": 66816, "name": "STARLINK-36098", "group": "last-30-days", "lat": -1.4438760812176663, "lon": -15.036269986773338, "alt_km": 415.16804197738475, "timestamp": "2025-12-27T13:34:48.007310+00:00", "meta": {"OBJECT_NAME": "STARLINK-36098", "OBJECT_ID": "2025-278AB", "EPOCH": "2025-12-27T00:00:02.999808", "MEAN_MOTION": 15.50588317, "ECCENTRICITY": 0.00015046, "INCLINATION": 43.0001, "RA_OF_ASC_NODE": 166.7239, "ARG_OF_PERICENTER": 268.7963, "MEAN_ANOMALY": 351.1783, "EPHEMERIS_TYPE": 0, "CLASSIFICATION_TYPE": "U", "NORAD_CAT_ID": 66816, "ELEMENT_SET_NO": 999, "REV_AT_EPOCH": 509, "BSTAR": -0.00097010292, "MEAN_MOTION_DOT": -0.0005686, "MEAN_MOTION_DDOT": 0}, "tle": {"line1": "1 66816U 25278AB  25361.00003472 -.00056860  00000+0 -97010-3 0  9990", "line2": "2 66816  43.0001 166.7239 0001504 268.7963 351.1783 15.50588317  5097"}}, "geometry": {"type": "Point", "coordinates": [-15.036269986773338, -1.4438760812176663]}}, {"type": "Feature", "properties": {"norad_id": 66817, "name": "STARLINK-35995", "group": "last-30-days", "lat": -4.0564459005682, "lon": -12.231957132516738, "alt_km": 415.46236890429736, "timestamp": "2025-12-27T13:34:48.007320+00:00", "meta": {"OBJECT_NAME": "STARLINK-35995", "OBJECT_ID": "2025-278AC", "EPOCH": "2025-12-27T00:00:02.999808", "MEAN_MOTION": 15.50570945, "ECCENTRICITY": 0.00016404, "INCLINATION": 43.0001, "RA_OF_ASC_NODE": 166.7136, "ARG_OF_PERICENTER": 274.3713, "MEAN_ANOMALY": 349.4376, "EPHEMERIS_TYPE": 0, "CLASSIFICATION_TYPE": "U", "NORAD_CAT_ID": 66817, "ELEMENT_SET_NO": 999, "REV_AT_EPOCH": 525, "BSTAR": -0.00037422385, "MEAN_MOTION_DOT": -0.00022227, "MEAN_MOTION_DDOT": 0}, "tle": {"line1": "1 66817U 25278AC  25361.00003472 -.00022227  00000+0 -37422-3 0  9992", "line2": "2 66817  43.0001 166.7136 0001640 274.3713 349.4376 15.50570945  5255"}}, "geometry": {"type": "Point", "coordinates": [-12.231957132516738, -4.0564459005682]}}, {"type": "Feature", "properties": {"norad_id": 66818, "name": "STARLINK-35994", "group": "last-30-days", "lat": 30.423952123455923, "lon": -55.530657665342034, "alt_km": 440.7267506952421, "timestamp": "2025-12-27T13:34:48.007332+00:00", "meta": {"OBJECT_NAME": "STARLINK-35994", "OBJECT_ID": "2025-278AD", "EPOCH": "2025-12-27T06:00:02.000160", "MEAN_MOTION": 15.40616284, "ECCENTRICITY": 0.00022639, "INCLINATION": 43.0006, "RA_OF_ASC_NODE": 165.3537, "ARG_OF_PERICENTER": 282.8524, "MEAN_ANOMALY": 255.4837, "EPHEMERIS_TYPE": 0, "CLASSIFICATION_TYPE": "U", "NORAD_CAT_ID": 66818, "ELEMENT_SET_NO": 999, "REV_AT_EPOCH": 529, "BSTAR": 0.0011961396, "MEAN_MOTION_DOT": 0.00049852, "MEAN_MOTION_DDOT": 0}, "tle": {"line1": "1 66818U 25278AD  25361.25002315  .00049852  00000+0  11961-2 0  9995", "line2": "2 66818  43.0006 165.3537 0002263 282.8524 255.4837 15.40616284  5295"}}, "geometry": {"type": "Point", "coordinates": [-55.530657665342034, 30.423952123455923]}}, {"type": "Feature", "properties": {"norad_id": 66819, "name": "STARLINK-35989", "group": "last-30-days", "lat": -5.360811932380576, "lon": -10.822367236908873, "alt_km": 415.59093501359075, "timestamp": "2025-12-27T13:34:48.007342+00:00", "meta": {"OBJECT_NAME": "STARLINK-35989", "OBJECT_ID": "2025-278AE", "EPOCH": "2025-12-27T00:00:02.999808", "MEAN_MOTION": 15.50571322, "ECCENTRICITY": 0.00014601, "INCLINATION": 43.0001, "RA_OF_ASC_NODE": 166.7083, "ARG_OF_PERICENTER": 275.0069, "MEAN_ANOMALY": 350.7199, "EPHEMERIS_TYPE": 0, "CLASSIFICATION_TYPE": "U", "NORAD_CAT_ID": 66819, "ELEMENT_SET_NO": 999, "REV_AT_EPOCH": 525, "BSTAR": -0.00037010918, "MEAN_MOTION_DOT": -0.00021987, "MEAN_MOTION_DDOT": 0}, "tle": {"line1": "1 66819U 25278AE  25361.00003472 -.00021987  00000+0 -37011-3 0  9990", "line2": "2 66819  43.0001 166.7083 0001460 275.0069 350.7199 15.50571322  5258"}}, "geometry": {"type": "Point", "coordinates": [-10.822367236908873, -5.360811932380576]}}]}